,LEGAL_BUSINESS_NAME,DBA_NAME,PHYSICAL_ADDRESS_LINE_1,PHYSICAL_ADDRESS_LINE_2,PHYSICAL_ADDRESS_CITY,PHYSICAL_ADDRESS_PROVINCE_OR_STATE,PHYSICAL_ADDRESS_ZIP,PHYSICAL_ADDRESS_ZIP4,PHYSICAL_ADDRESS_COUNTRY_CODE,ENTITY_CONGRESSIONAL_DISTRICT,CORPORATE_URL,ENTITY_STRUCTURE,STATE_OF INC,COUNTRY_OF_INC,0
85365,MICRON CORPORATION,MICRON,1940 ELK RIVER DAM RD,,TULLAHOMA,TN,37388,9716.0,USA,4.0,,2L,TN,USA,"['https://www.microncorp.com/', 'https://www.micron.com/', 'https://www.microncorp.com/about-us/', 'https://en.wikipedia.org/wiki/Micron_Technology', 'http://www.thomasnet.com/profile/00401371/micron-corporation.html', 'https://www.linkedin.com/company/micron-corporation', 'http://www.micronpower.com/', 'http://www.hosokawamicron.co.jp/en/', 'http://www.microntn.com/', 'http://www.micdent.com/new_page/NeoM2/english.html']"
86035,ENOVIX CORPORATION,,3501 W WARREN AVE,,FREMONT,CA,94538,6400.0,USA,17.0,,2L,DE,USA,"['http://www.enovix.com/', 'https://www.linkedin.com/company/enovix-corp-', 'http://www.wsj.com/articles/enovix-tries-to-build-a-better-battery-with-chipmaking-techniques-1459978546', 'http://www.treasurer.ca.gov/caeatfa/meeting/staff/2017/20170117/4b1.pdf', 'https://twitter.com/enovix3d?lang=en', 'http://spectrum.ieee.org/semiconductors/design/how-to-build-a-safer-more-energydense-lithiumion-battery', 'https://pitchbook.com/profiles/enovix-profile-investors-funding-valuation-and-analysis', 'http://www.rockportcap.com/our-portfolio/enovix', 'https://blogs.wsj.com/cfo/2016/04/07/the-morning-ledger-valeant-gains-breathing-room-on-debt-obligations/', 'https://www.crunchbase.com/organization/enovix']"
96668,"JOHNSON CONTROLS, INC.",JOHNSON CONTROLS,4850 BROOKSIDE CT,,NORFOLK,VA,23502.0,2052.0,USA,3.0,,2L,WI,USA,"['http://www.johnsoncontrols.com/', 'https://en.wikipedia.org/wiki/Johnson_Controls', 'http://www.johnsoncontrols.com/careers/why-johnson-controls', 'https://www.johnsoncontrols.com/contact-us', 'http://investors.johnsoncontrols.com/', 'https://www.linkedin.com/company/johnson-controls', 'https://jobs.johnsoncontrols.com/', 'https://www.facebook.com/JohnsonControls/', 'http://investors.johnsoncontrols.com/financial-information/johnson-sec-filings', 'https://cgproducts.johnsoncontrols.com/']"
96679,"JOHNSON CONTROLS, INC.",JOHNSON CONTROLS,850 E FRANKLIN RD STE 410,,MERIDIAN,ID,83642,8916.0,USA,1.0,,2L,WI,USA,"['http://www.johnsoncontrols.com/', 'https://en.wikipedia.org/wiki/Johnson_Controls', 'http://www.johnsoncontrols.com/careers/why-johnson-controls', 'https://www.johnsoncontrols.com/contact-us', 'http://investors.johnsoncontrols.com/', 'https://www.linkedin.com/company/johnson-controls', 'https://jobs.johnsoncontrols.com/', 'https://www.facebook.com/JohnsonControls/', 'http://investors.johnsoncontrols.com/financial-information/johnson-sec-filings', 'https://cgproducts.johnsoncontrols.com/']"
96680,"JOHNSON CONTROLS, INC.",JOHNSON CONTROLS,4415 SEA RAY DR,,NORTH CHARLESTON,SC,29405,8401.0,USA,6.0,,2L,WI,USA,"['http://www.johnsoncontrols.com/', 'https://en.wikipedia.org/wiki/Johnson_Controls', 'http://www.johnsoncontrols.com/careers/why-johnson-controls', 'https://www.johnsoncontrols.com/contact-us', 'http://investors.johnsoncontrols.com/', 'https://www.linkedin.com/company/johnson-controls', 'https://jobs.johnsoncontrols.com/', 'https://www.facebook.com/JohnsonControls/', 'http://investors.johnsoncontrols.com/financial-information/johnson-sec-filings', 'https://cgproducts.johnsoncontrols.com/']"
99344,KORNYLAK CORPORATION,,400 HEATON ST,,HAMILTON,OH,45011,1872.0,USA,8.0,,2K,OH,USA,"['http://kornylak.com/', 'https://www.linkedin.com/company/kornylak-corporation', 'http://www.kornylak.com/wheels/wheels.html', 'http://www.thomasnet.com/profile/10021888/kornylak-corporation.html', 'http://www.kornylak.com/contact-us.html', 'https://www.facebook.com/Kornylak-Corporation-122071160777/', 'https://twitter.com/transwheel?lang=en', 'http://store.kornylak.com/', 'http://www.zycon.com/Profile/Kornylak-Corporation-219514/', 'https://www.youtube.com/user/KornylakCorp']"
99378,ENVIRONMENTAL TECTONICS CORPORATION,,125 JAMES WAY,,SOUTHAMPTON,PA,18966.0,3817.0,USA,8.0,,2L,PA,USA,"['https://www.etcusa.com/', 'https://www.linkedin.com/company/environmental-tectonics-corp', 'https://www.etcusa.com/about/', 'https://www.glassdoor.com/Overview/Working-at-Environmental-Tectonics-EI_IE1372.11,34.htm', 'https://www.etcusa.com/careers/', 'http://www.marketwatch.com/investing/stock/etcc', 'http://www.vault.com/company-profiles/aerospace-and-defense/environmental-tectonics-corporation/company-overview', 'http://www.etcaircrewtraining.com/', 'https://finance.yahoo.com/quote/ETCC?p=ETCC', 'http://topics.nytimes.com/top/news/business/companies/environmental-tectonics-corporation/index.html']"
99547,"HEI, INC.",,3800 VASSER DRIVE NE,,ALBUQUERQUE,NM,87107.0,2059.0,USA,1.0,,2L,NM,USA,"['http://heinm.com/', 'https://www.linkedin.com/company/hei-inc', 'http://www.hei.com/', 'https://www.glassdoor.com/Jobs/HEI-Jobs-E1465.htm', 'http://www.campo-nsn.gov/muhthei.html', 'http://www.google.com/finance?q=OTCMKTS:HEIIQ', 'https://www.manta.com/c/mmfsrhs/hei-inc', 'http://www.mbbnet.umn.edu/company_folder/hei.html', 'http://highenergyinc.com/', 'http://www.manta.com/c/mm7yv0d/hei-inc']"
99576,TEMPTRONIC CORPORATION,,41 HAMPDEN RD,,MANSFIELD,MA,2048.0,1807.0,USA,4.0,,2L,DE,USA,"['http://www.temptronic.com/', 'https://www.bostonglobe.com/metro/obituaries/2017/02/16/thomas-gerendas-holocaust-survivor-who-founded-temptronic-corp/wIB1LoY1zs57qpDAgg4AaK/story.html', 'http://www.temptronic.com/Aboutus/Aboutus_04.htm', 'https://www.linkedin.com/company/temptronic-corp', 'http://www.temptronic.com/Products/ProductSelector.htm', 'https://www.linkedin.com/company/temptronic-corporation', 'http://www.temptronic.com/Products/product_index.htm', 'http://www.intest.com/products/products_temptronic.htm', 'https://www.linkedin.com/company/intest', 'http://www.intest.com/']"
99645,"RWC, INC.",,2105 S EUCLID AVE,,BAY CITY,MI,48706,3409.0,USA,5.0,,2L,MI,USA,"['http://www.rwcinc.com/', 'http://rwcincorporated.com/', 'http://www.rwc-inc.net/', 'https://www.youtube.com/watch?v=UZ7O5vp06Bg', 'http://www.rwc.com/', 'https://www.linkedin.com/company/rwc-inc', 'http://www.dec.ny.gov/docs/regions_pdf/rwcord.pdf', 'http://www.baycityarea.com/Manufacturers/RWC,-Inc-842', 'https://finance.yahoo.com/quote/RWC/', 'http://portofmemphis.com/industry/rwc-inc/']"
105361,"PETOSKEY PLASTICS, INC.",,1100 W GRANT ST,,HARTFORD CITY,IN,47348,1970.0,USA,5.0,,2L,MI,USA,"['http://www.petoskeyplastics.com/', 'https://www.linkedin.com/company/petoskey-plastics', 'http://www.petoskeyplastics.com/products/', 'https://www.facebook.com/PetoskeyPlastics/', 'http://www.petoskeyplastics.com/contact/', 'https://www.amazon.com/Petoskey-Plastics-94105-Steelcoat-Contractor/dp/B00HC7N90C', 'http://www.petoskeyplastics.com/careers/', 'http://www.greencoreproducts.com/2017/01/petoskey-plastics-named-finalist-for-plastics-news-processor-of-the-year-2016/', 'https://www.linkedin.com/in/paul-keiswetter-a515508', 'https://www.yellowpages.com/morristown-tn/mip/petoskey-plastics-11926011']"
105363,"PETOSKEY PLASTICS, INC.",,5725 COMMERCE BLVD,,MORRISTOWN,TN,37814.0,1049.0,USA,1.0,,2L,MI,USA,"['http://www.petoskeyplastics.com/', 'https://www.linkedin.com/company/petoskey-plastics', 'http://www.petoskeyplastics.com/products/', 'https://www.facebook.com/PetoskeyPlastics/', 'http://www.petoskeyplastics.com/contact/', 'https://www.amazon.com/Petoskey-Plastics-94105-Steelcoat-Contractor/dp/B00HC7N90C', 'http://www.petoskeyplastics.com/careers/', 'http://www.greencoreproducts.com/2017/01/petoskey-plastics-named-finalist-for-plastics-news-processor-of-the-year-2016/', 'https://www.linkedin.com/in/paul-keiswetter-a515508', 'https://www.yellowpages.com/morristown-tn/mip/petoskey-plastics-11926011']"
105364,"PETOSKEY PLASTICS, INC.",,4226 US HWY 31,,PETOSKEY,MI,49770,9723.0,USA,1.0,,2L,MI,USA,"['http://www.petoskeyplastics.com/', 'https://www.linkedin.com/company/petoskey-plastics', 'http://www.petoskeyplastics.com/products/', 'https://www.facebook.com/PetoskeyPlastics/', 'http://www.petoskeyplastics.com/contact/', 'https://www.amazon.com/Petoskey-Plastics-94105-Steelcoat-Contractor/dp/B00HC7N90C', 'http://www.petoskeyplastics.com/careers/', 'http://www.greencoreproducts.com/2017/01/petoskey-plastics-named-finalist-for-plastics-news-processor-of-the-year-2016/', 'https://www.linkedin.com/in/paul-keiswetter-a515508', 'https://www.yellowpages.com/morristown-tn/mip/petoskey-plastics-11926011']"
105444,CORAL CHEMICAL COMPANY,CORAL,1915 INDUSRIAL AVE,,ZION,IL,60099,1435.0,USA,10.0,,2L,IL,USA,"['http://www.coral.com/', 'https://www.linkedin.com/company/coral-chemical-company', 'http://www.coral.com/products/', 'http://www.pfonline.com/suppliers/corache', 'http://www.coral.com/general-inquiries/', 'https://www.linkedin.com/company/coral-chemical', 'http://www.coral.com/about-coral/careers/', 'http://www.poolwater.com/msds/all/Coral%20Seas%20-%20Green%20to%20Clean.pdf', 'http://www.pfonline.com/columns/a-conversation-withpeter-dority-coral-chemical', 'http://aquamagazine.com/community/nc-brands-on-the-acquisition-trail.html']"
111071,"RJ LEE GROUP, INC.",,350 HOCHBERG RD,,MONROEVILLE,PA,15146.0,1516.0,USA,12.0,,2L,PA,USA,"['http://www.rjlg.com/', 'https://en.wikipedia.org/wiki/RJ_Lee_Group', 'http://www.rjlg.com/all-laboratory-services/', 'https://www.linkedin.com/company/rj-lee-group', 'http://www.rjlg.com/about-us/careers/', 'https://www.facebook.com/rjleegroup/', 'http://www.rjlg.com/contact-us/', 'https://www.linkedin.com/company/r-j-lee-group-inc', 'https://www.azomining.com/Suppliers.aspx?SupplierID=3726', 'http://go.rjlg.com/us-distributor-ionicon-ptr-ms']"
111076,KOPIN CORPORATION,,125 NORTH DR,,WESTBOROUGH,MA,1581,3335.0,USA,2.0,,2L,DE,USA,"['http://www.kopin.com/', 'https://en.wikipedia.org/wiki/Kopin_Corporation', 'http://www.kopin.com/investors/overview/default.aspx', 'https://finance.yahoo.com/quote/KOPN/', 'http://www.kopin.com/capabilities/display/default.aspx', 'http://www.google.com/finance?q=NASDAQ:KOPN', 'http://www.kopin.com/contact/', 'https://www.linkedin.com/company/kopin-corporation', 'https://finance.yahoo.com/q?s=kopn', 'https://seekingalpha.com/symbol/KOPN']"
111367,"INTEVAC, INC.",,3560 BASSETT ST,,SANTA CLARA,CA,95054,2704.0,USA,17.0,,2L,DE,USA,"['http://www.intevac.com/', 'https://finance.yahoo.com/quote/IVAC/', 'http://www.intevac.com/company/careers/', 'http://investor.intevac.com/', 'http://www.intevac.com/company/', 'http://www.google.com/finance?q=NASDAQ:IVAC', 'https://en.wikipedia.org/wiki/Intevac', 'http://investor.intevac.com/releases.cfm?view=all', 'http://www.marketwatch.com/investing/stock/ivac', 'https://www.linkedin.com/company/intevac']"
111755,"AERODYNE RESEARCH, INC.",,45 MANNING RD,,BILLERICA,MA,1821,3934.0,USA,6.0,,2L,MA,USA,"['http://www.aerodyne.com/', 'https://www.flyaerodyne.com/', 'http://www.aerodyne.com/about', 'https://www.linkedin.com/company/aerodyne-research', 'http://www.aerodyne.com/contact', 'https://cfpub.epa.gov/ncer_abstracts/index.cfm/fuseaction/display.institutioninfo/location/2801', 'http://www.aerodyne.com/product-overview', 'https://www.researchgate.net/institution/Aerodyne_Research_Inc', 'https://www.glassdoor.com/Overview/Working-at-Aerodyne-Research-EI_IE261660.11,28.htm', 'https://www.azonano.com/suppliers.aspx?SupplierID=530']"
111759,ALLIANT TECHSYSTEMS INC.,,25201 E 78 HWY,,INDEPENDENCE,MO,64056,,USA,5.0,,2L,MO,USA,"['http://www.atk.com/', 'https://en.wikipedia.org/wiki/Alliant_Techsystems', 'https://www.fool.com/investing/general/2015/01/29/alliant-techsystems-inc-issues-its-last-earnings-r.aspx', 'https://www.linkedin.com/company/alliant-tech-systems-inc', 'https://www.orbitalatk.com/', 'https://www.bloomberg.com/research/stocks/private/snapshot.asp?privcapid=139606963', 'http://www.nytimes.com/topic/company/orbital-atk-inc', 'https://jobs.orbitalatk.com/', 'https://www.sec.gov/Archives/edgar/data/866121/000144530513001376/atk-3312013x10xk.htm', 'https://www.moodys.com/credit-ratings/Orbital-ATK-Inc-credit-rating-600015494']"
112684,"LUBRICATION TECHNOLOGIES, INC.",,120 BOSWORTH ST,,WEST SPRINGFIELD,MA,01089,3503.0,USA,1.0,,2L,MA,USA,"['http://www.lubetech.com/', 'http://www.lubetechnologies.com/', 'https://www.linkedin.com/company/lubrication-technologies-inc-', 'http://www.badgerlubrication.com/', 'https://www.linkedin.com/company/lubrication-technology-inc.', 'http://www.globalspec.com/supplier/profile/LubricationTechnology', 'http://caselaw.findlaw.com/us-7th-circuit/1392346.html', 'http://appliedlubrication.com/', 'http://www.carwash.org/news-landing/2017/03/29/lubrication-technologies-agrees-to-acquire-professional-carwash-systems-inc', 'http://bluestarlt.com/']"
113550,IXYS CORPORATION,,1590 BUCKEYE DR,,MILPITAS,CA,95035.0,7418.0,USA,17.0,,2L,DE,USA,"['http://www.ixys.com/', 'https://en.wikipedia.org/wiki/IXYS_Corporation', 'https://finance.yahoo.com/quote/IXYS', 'http://www.ixyspower.com/', 'https://finance.yahoo.com/q?s=IXYS', 'https://www.linkedin.com/company/ixys-corporation', 'http://www.marketwatch.com/investing/stock/ixys', 'http://www.google.com/finance?q=NASDAQ:IXYS', 'https://www.digikey.com/en/supplier-centers/i/ixys-corporation', 'https://ixyscolorado.com/']"
113628,PHYSICAL OPTICS CORPORATION,,1845 WEST 205TH STREET,,TORRANCE,CA,90501,1821.0,USA,43.0,,2L,CA,USA,"['http://www.poc.com/', 'https://www.glassdoor.com/Reviews/Physical-Optics-Corporation-Reviews-E262045.htm', 'http://www.poc.com/careers/', 'https://www.glassdoor.com/Overview/Working-at-Physical-Optics-Corporation-EI_IE262045.11,38.htm', 'https://www.linkedin.com/company/poc', 'http://californiananoeconomy.org/content/physical-optics-corporation', 'https://www.crunchbase.com/organization/physical-optics-corporation', 'http://www.multivu.com/players/English/7544051-poc-navair-dds-contract/', 'https://www.indeed.com/cmp/Physical-Optics-Corporation', 'https://www.flexjobs.com/jobs/telecommuting-jobs-at-physical_optics_corporation_-_poc']"
114125,"ELECTRO SCIENTIFIC INDUSTRIES, INC.",E S I,13900 NW SCIENCE PARK DR,,PORTLAND,OR,97229,5411.0,USA,1.0,,2L,OR,USA,"['https://www.esi.com/', 'https://en.wikipedia.org/wiki/Electro_Scientific_Industries', 'http://investors.esi.com/', 'https://finance.yahoo.com/quote/ESIO/', 'https://www.linkedin.com/company/electro-scientific-industries-inc-', 'http://www.google.com/finance?q=NASDAQ:ESIO', 'https://seekingalpha.com/article/4071460-electro-scientific-industries-esio-ceo-michael-burger-q4-2017-results-earnings-call', 'https://www.glassdoor.com/Reviews/Electro-Scientific-Industries-Reviews-E1365.htm', 'http://www.marketwatch.com/investing/stock/esio', 'https://www.zacks.com/stock/quote/ESIO']"
114224,"BIOTHERM HYDRONIC, INC.",TRUE LEAF TECHNOLOGIES,476 PRIMERO CRT,,COTATI,CA,94931,3014.0,USA,5.0,,2L,CA,USA,"['http://www.biothermsolutions.com/', 'https://www.linkedin.com/company/trueleaf-technologies', 'http://www.biothermsolutions.com/products/', 'http://www.raypak.com/product.aspx?id=8A72D058-45A8-49F0-8A92-41E626452EBF', 'http://www.biothermsolutions.com/industries/greenhouse/', 'http://www.raypak.com/Product.aspx?id=2e96c444-f50f-4814-833b-b24659811f90', 'http://www.biothermsolutions.com/about-us/', 'http://www.deltatsolutions.com/', 'http://www.biothermic.ca/about', 'https://www.heatmor.com/']"
115437,"APLIX, INC.",,12300 STEELE CREEK RD,,CHARLOTTE,NC,28273,3738.0,USA,12.0,,2L,DE,USA,"['http://www.aplix.com/en', 'https://www.manufacturednc.com/Aplix-Inc', 'http://www.aplix.com/fr', 'https://www.packworld.com/company/aplix-inc', 'http://www.aplix.com/en/contact', 'https://www.linkedin.com/company/aplix-inc', 'http://www.aplix.com/en/careers.html', 'https://www.linkedin.com/company/aplix-corporation', 'http://stc.officialbuyersguide.net/Listing.asp?MDSID=SNT-1000055&AdListingID=', 'https://www.linkedin.com/company/aplix---hook-&-loop-fasteners']"
115501,"TOMAR ELECTRONICS, INC.",,2100 W OBISPO AVE,,GILBERT,AZ,85233,3401.0,USA,5.0,,2L,AZ,USA,"['https://www.tomar.com/', 'https://www.amazon.com/Tomar-Electronics-5001-Strobe-Replacement/dp/B006GEVGRK', 'https://www.tomar.com/products/', 'https://www.facebook.com/TOMARUSA/', 'https://www.linkedin.com/company/tomar-electronics', 'http://www.tomar-custom.com/', 'http://www.tomar.com/support/privacy.htm', 'http://www.rga-traffic.com/distributor-supplier-tomar-electronics-emergency-vehicle-traffic-control-systems.html', 'http://www.tomar.com/pdf/catalogs/strobecom.pdf', 'http://www.thomasnet.com/profile/00708909/tomar-electronics-inc.html']"
115953,"AIR-VAC ENGINEERING COMPANY, INC.",,30 PROGRESS AVE,,SEYMOUR,CT,6483,3921.0,USA,3.0,,2L,CT,USA,"['http://www.air-vac-eng.com/', 'http://www.airvacpumps.com/', 'http://air-vac-store.com/', 'http://www.air-vac-eng.com/contacts.html', 'https://www.manta.com/c/mmb46w5/air-vac-engineering-company-inc', 'https://www.linkedin.com/company/airvac-inc.', 'http://www.jdbullerreps.com/New_Folder/DRS25UserManual%20002500902%20R0100.pdf', 'https://www.smtnet.com/company/index.cfm?fuseaction=view_company&company_id=44527&component=catalog&catalog_id=19555', 'http://www.smtnet.com/company/index.cfm?fuseaction=view_company&company_id=44527&component=catalog&catalog_id=19553', 'http://www.gsaservice.com/about_gsa_service_co.htm']"
116286,EVANS & SUTHERLAND COMPUTER CORPORATION,,770 KOMAS DR,,SALT LAKE CITY,UT,84108.0,1207.0,USA,2.0,,2L,UT,USA,"['https://www.es.com/', 'https://en.wikipedia.org/wiki/Evans_%26_Sutherland', 'https://www.es.com/About/', 'http://www.google.com/finance?q=OTCMKTS:ESCC', 'https://www.es.com/Contact/', 'https://www.crunchbase.com/organization/evans-sutherland-computer-corporation', 'https://www.linkedin.com/company/evans-&-sutherland', 'http://www.es.com/About/Careers.aspx', 'https://finance.yahoo.com/quote/ESCC/', 'http://caselaw.findlaw.com/us-2nd-circuit/1305040.html']"
116402,TEALIUM INC.,,11085 TORREYANA RD FL 2,,SAN DIEGO,CA,92121,1104.0,USA,49.0,,2L,CA,USA,"['https://tealium.com/', 'https://en.wikipedia.org/wiki/Tealium', 'https://tealium.com/contact/', 'http://tealium.com/gb/', 'http://www.sandiegouniontribune.com/business/sd-fi-tealium-funding-20160921-story.html', 'https://github.com/Tealium', 'https://www.linkedin.com/company/tealium', 'https://www.crunchbase.com/organization/tealium', 'https://www.glassdoor.com/Reviews/Tealium-Reviews-E664700.htm', 'https://www.inc.com/profile/tealium']"
116528,"ECKEL INDUSTRIES, INC.",ECKOUSTIC DIVISION,155 FAWCETT ST STE 1,,CAMBRIDGE,MA,2138,1111.0,USA,5.0,,2L,MA,USA,"['http://www.eckelusa.com/', 'https://en.wikipedia.org/wiki/Eckel_Industries', 'http://www.eckelusa.com/contact-us.html', 'http://www.manta.com/c/mmb48qv/eckel-industries-inc', 'http://www.eckelusa.com/products.html', 'http://www.arcat.com/arcatcos/cos32/arc32186.html', 'http://www.manta.com/c/mt59d9s/eckel-industries-inc', 'https://www.linkedin.com/company/eckel-industries-inc', 'https://sweets.construction.com/Manufacturer/Eckel-Industries-Inc-NST164/Products/Eckoustic-Functional-Panels--EFP--NST205922-P', 'https://www.linkedin.com/company/eckel-industries']"
116530,CYBEROPTICS CORPORATION,,5900 GOLDEN HILLS DR,,MINNEAPOLIS,MN,55416,1040.0,USA,5.0,,2L,MN,USA,"['http://cyberoptics.com/', 'https://finance.yahoo.com/quote/CYBE/', 'http://cyberoptics.com/investor/', 'http://www.google.com/finance?q=NASDAQ:CYBE', 'http://cyberoptics.com/company/', 'https://www.linkedin.com/company/cyberoptics', 'https://seekingalpha.com/symbol/CYBE', 'https://www.bloomberg.com/quote/CYBE:US', 'http://www.marketwatch.com/investing/stock/cybe', 'https://www.zacks.com/stock/quote/CYBE']"
133780,"INNOVATION ASSOCIATES, INC.",,530 COLUMBIA DR STE 101,,JOHNSON CITY,NY,13790.0,1057.0,USA,22.0,,ZZ,NY,USA,"['https://innovat.com/', 'http://www.innovationassociates.com/', 'http://innovationassoc.com/', 'https://www.linkedin.com/company/innovation-associates', 'http://www.niasat.com/', 'http://www.cafc.uscourts.gov/sites/default/files/opinions-orders/15-1565.Opinion.8-8-2016.1.PDF', 'http://clinicalinnovations.com/', 'http://www.niasat.com/contact/', 'http://www.innovationpp.net/', 'https://www.roboticsbusinessreview.com/company/innovation-associates/']"
133792,"HYPRES, INC.",,175 CLEARBROOK RD,,ELMSFORD,NY,10523.0,1109.0,USA,17.0,,2L,DE,USA,"['http://www.hypres.com/', 'https://www.linkedin.com/company/hypres', 'http://www.hypres.com/company/executive-team/', 'http://www.hypresequip.com/', 'http://www.hypres.com/products/', 'https://www.crunchbase.com/organization/hypres', 'http://www.hypres.com/contact/', 'https://www.glassdoor.com/Salary/HYPRES-Salaries-E11092.htm', 'https://www.youtube.com/watch?v=JdUi1Zr9tiY', 'http://scholar.google.com/citations?user=Yeslw5kAAAAJ&hl=en']"
134383,HONEYWELL INTERNATIONAL INC.,HONEYWELL,8370 DOW CIR STE 5,,STRONGSVILLE,OH,44136,1778.0,USA,16.0,,ZZ,OH,USA,"['https://www.honeywell.com/', 'https://en.wikipedia.org/wiki/Honeywell', 'https://www.bloomberg.com/quote/HON:US', 'http://www51.honeywell.com/honeywell/contact-support/contact-us.html', 'http://quotes.wsj.com/HON', 'https://www.linkedin.com/company/honeywell', 'https://aerospace.honeywell.com/', 'https://myaerospace.honeywell.com/account/login', 'http://www.cafc.uscourts.gov/sites/default/files/opinions-orders/16-1996.Opinion.7-31-2017.1.PDF', 'https://yourhome.honeywell.com/en/products/thermostat']"
144774,EMAGIN CORPORATION,,2070 ROUTE 52,,HOPEWELL JUNCTION,NY,12533.0,3507.0,USA,18.0,,2L,DE,USA,"['http://emagin.com/', 'http://ir.emagin.com/', 'http://emagin.com/about/locations/', 'http://ir.emagin.com/phoenix.zhtml?c=96135&p=irol-news&nyo=0', 'http://emagin.com/contact/', 'https://finance.yahoo.com/quote/EMAN/', 'https://www.linkedin.com/company/emagin-corporation', 'https://finance.yahoo.com/q?s=eman', 'https://en.wikipedia.org/wiki/EMagin', 'http://www.google.com/finance?q=NYSEMKT:EMAN']"
144802,"VARIAN MEDICAL SYSTEMS, INC.",VARIAN MEDICAL SYSTEMS,3100 HANSEN WAY,,PALO ALTO,CA,94304,1030.0,USA,18.0,,2L,DE,USA,"['https://www.varian.com/?multilink=switch', 'https://en.wikipedia.org/wiki/Varian_Medical_Systems', 'https://www.varian.com/about-varian/careers?multilink=switch', 'http://investors.varian.com/', 'https://www.varian.com/about-varian?multilink=switch', 'http://newsroom.varian.com/', 'https://www.varian.com/oncology/products?multilink=switch', 'https://www.glassdoor.com/Reviews/Varian-Medical-Systems-Reviews-E9111.htm', 'https://www.linkedin.com/company/varian-medical-systems', 'https://www.glassdoor.com/Overview/Working-at-Varian-Medical-Systems-EI_IE9111.11,33.htm']"
144804,"VARIAN MEDICAL SYSTEMS, INC.",,660 N MCCARTHY BLVD,,MILPITAS,CA,95035,5122.0,USA,17.0,,2L,DE,USA,"['https://www.varian.com/?multilink=switch', 'https://en.wikipedia.org/wiki/Varian_Medical_Systems', 'https://www.varian.com/about-varian/careers?multilink=switch', 'http://investors.varian.com/', 'https://www.varian.com/about-varian?multilink=switch', 'http://newsroom.varian.com/', 'https://www.varian.com/oncology/products?multilink=switch', 'https://www.glassdoor.com/Reviews/Varian-Medical-Systems-Reviews-E9111.htm', 'https://www.linkedin.com/company/varian-medical-systems', 'https://www.glassdoor.com/Overview/Working-at-Varian-Medical-Systems-EI_IE9111.11,33.htm']"
144875,MAVERICK CORPORATION,,11379 GROOMS RD,,BLUE ASH,OH,45242,1405.0,USA,2.0,,2L,OH,USA,"['http://www.maverickmolding.com/', 'http://www.maverickcorp.com/home.htm', 'http://www.maverickcorporation.com/', 'https://www.linkedin.com/company/maverick-corporation-ltd', 'http://www.maverickcorporation.com/staff-profiles/', 'http://www.compositesworld.com/suppliers/maver', 'http://www.renegadematerials.com/about-us/', 'https://www.linkedin.com/company/maverick-molding-company', 'http://www.renegadematerials.com/', 'https://www.linkedin.com/company/maverick-construction-corp.']"
144882,"AGILENT TECHNOLOGIES, INC.",,6392 VIA REAL,,CARPINTERIA,CA,93013,2921.0,USA,24.0,,2L,DE,USA,"['http://www.agilent.com/', 'http://careers.agilent.com/', 'https://en.wikipedia.org/wiki/Agilent_Technologies', 'http://www.investor.agilent.com/', 'https://www.linkedin.com/company/agilent-technologies', 'https://finance.yahoo.com/quote/A/', 'http://www.google.com/finance?q=NYSE:A', 'https://finance.yahoo.com/q?s=a', 'http://www.genomics.agilent.com/', 'https://www.glassdoor.com/Reviews/Agilent-Technologies-Reviews-E9711.htm']"
145619,"SWITLIK PARACHUTE COMPANY, INC.",SWITLIK SURVIVAL PRODUCTS,1325 E STATE ST,,TRENTON,NJ,8609,1615.0,USA,4.0,,2L,NJ,USA,"['http://www.switlik.com/', 'http://businessfinder.nj.com/3979886/Switlik-Parachute-Co-Inc-Trenton-NJ', 'http://www.switlik.com/contact', 'https://www.linkedin.com/company/switlik-parachute-company', 'http://www.switlik.com/information/ourstory', 'https://www.uscg.mil/hq/cg5/cg5214/docs/SWITLIK_ALERT_JUN08.pdf', 'http://www.switlik.com/information', 'http://www.officer.com/company/10030382/switlik-parachute-co-inc', 'https://en.wikipedia.org/wiki/Stanley_Switlik', 'https://www.facebook.com/SwitlikParachuteCompany/']"
145647,"LEXMARK INTERNATIONAL, INC.",LEXMARK,1100 15TH ST NW STE 700,,WASHINGTON,DC,20005.0,1760.0,USA,98.0,,2L,DE,USA,"['https://www.lexmark.com/', 'http://www.lexmark.com/en_us/about/company.html', 'https://www.lexmark.com/en_us/contact-us.html', 'https://en.wikipedia.org/wiki/Lexmark', 'https://www.supremecourt.gov/opinions/16pdf/15-1189_ebfj.pdf', 'https://www.linkedin.com/company/lexmark', 'http://www.scotusblog.com/case-files/cases/impression-products-inc-v-lexmark-international-inc/', 'https://www.fool.com/investing/2016/09/30/lexmark-international-inc-stock-jumps-as-buyout-lo.aspx', 'https://finance.yahoo.com/q?s=lxk', 'http://www.google.com/finance?q=NYSE:LXK']"
145791,STRASBAUGH,,825 BUCKLEY RD,,SAN LUIS OBISPO,CA,93401,8130.0,USA,24.0,,2L,CA,USA,"['http://www.revasum.com/', 'http://www.strasbaughfinancial.com/', 'https://www.crunchbase.com/organization/strasbaugh', 'http://www.ballardspahr.com/people/attorneys/strasbaugh_wayne.aspx', 'http://knowlton.osu.edu/people/strasbaugh', 'http://www.axustech.com/strasbaugh-model-7af-wafer-grinder-backgrinder', 'http://lnf-wiki.eecs.umich.edu/wiki/CMP_Strasbaugh_6EC', 'https://www.facebook.com/Paige4WHSB/', 'http://www.entrepix.com/cmp-polisher/strasbaugh/entrepix-strasbaugh-ntegrity6ds-sp.php', 'http://www.jenniferstrasbaugh.com/']"
145807,"RUDOLPH TECHNOLOGIES, INC.",,16 JONSPIN RD,,WILMINGTON,MA,1887,1093.0,USA,6.0,,2L,DE,USA,"['http://www.rudolphtech.com/', 'https://en.wikipedia.org/wiki/Rudolph_Technologies,_Inc.', 'http://www.rudolphtech.com/careers', 'https://www.glassdoor.com/Reviews/Rudolph-Technologies-Reviews-E9815.htm', 'http://www.rudolphtech.com/locations', 'https://www.linkedin.com/company/rudolph-technologies', 'http://www.rudolphtech.com/company/', 'http://www.google.com/finance?q=NYSE:RTEC', 'https://finance.yahoo.com/quote/RTEC/', 'http://www.marketwatch.com/investing/stock/rtec']"
145814,"TPL, INC.",,3921 ACADEMY PKY NORTH NE,,ALBUQUERQUE,NM,87109.0,4416.0,USA,1.0,,2L,NM,USA,"['http://www.tplinc.com/', 'https://www.linkedin.com/company/tpl-inc-', 'http://www.tplinc.com/Contact_Us.html', 'https://www.manta.com/c/mm8r1s4/tpl-inc', 'http://www.tplinc.com/TPL__Inc_About_Us.html', 'http://www.globalspec.com/supplier/profile/TPL', 'https://m.facebook.com/Toiutestplinc/', 'https://cfpub.epa.gov/ncer_abstracts/index.cfm/fuseaction/display.institutionInfo/institution/3811', 'http://www.solutionstpl.com/', 'http://caselaw.findlaw.com/nm-supreme-court/1373796.html']"
145821,LUMINEX CORPORATION,,12212 TECHNOLOGY BLVD,,AUSTIN,TX,78727,6131.0,USA,31.0,,2L,DE,USA,"['https://www.luminexcorp.com/', 'https://en.wikipedia.org/wiki/Luminex_Corporation', 'https://www.luminexcorp.com/about-luminex/careers/open-positions/', 'https://www.linkedin.com/company/luminex-corporation', 'https://www.luminexcorp.com/contact-us/', 'https://finance.yahoo.com/quote/LMNX/', 'https://www.luminexcorp.com/eu/', 'https://www.facebook.com/LuminexCorp/', 'https://finance.yahoo.com/q?s=lmnx', 'http://phx.corporate-ir.net/phoenix.zhtml?c=79403&p=irol-news&nyo=0']"
145850,"PIXELLIGENT TECHNOLOGIES, LLC",,6411 BECKLEY ST HOLABIRD BUSINESS PARK,,BALTIMORE,MD,21224,,USA,3.0,,2K,VA,USA,"['http://www.pixelligent.com/', 'https://www.linkedin.com/company/pixelligent-technologies-llc', 'http://www.pixelligent.com/careers/', 'https://www.bloomberg.com/research/stocks/private/snapshot.asp?privcapid=33561451', 'http://www.pixelligent.com/products/', 'http://www.baltimoresun.com/business/bs-bz-pixelligent-raise-20160815-story.html', 'http://www.pixelligent.com/our-company/', 'https://www.americaninno.com/dc/baltimore-tech-pixelligent-technologies-raises-3-4-million/', 'http://jobs.jobvite.com/pixelligent/', 'https://www.linkedin.com/in/cbandeslinkedin']"
145864,"WILLIAMS INTERNATIONAL CO., L.L.C.",,2280 E W MAPLE RD,,WALLED LAKE,MI,48390,3828.0,USA,11.0,,ZZ,MI,USA,"['http://www.williams-int.com/', 'https://en.wikipedia.org/wiki/Williams_International', 'http://www.williams-int.com/contact', 'http://www.crainsdetroit.com/article/20170627/news/632626/williams-international-move-headquarters-former-pontiac-film-studio', 'http://www.williams-int.com/careers', 'http://www.crainsdetroit.com/article/20170312/news/170319961/williams-international-in-talks-for-plant-at-former-pontiac-film', 'http://www.williams-int.com/company', 'http://www.hoovers.com/company-information/cs/company-profile.williams_international_co_llc.b5b492842d1d38ec.html', 'https://www.glassdoor.com/Reviews/Williams-International-Reviews-E13544.htm', 'https://www.linkedin.com/company/williams-international']"
145871,TELEDYNE TECHNOLOGIES INCORPORATED,TELEDYNE JUDSON TECHNOLOGIES,221 COMMERCE DR,,MONTGOMERYVILLE,PA,18936,9641.0,USA,13.0,,2L,DE,USA,"['http://www.teledyne.com/', 'https://en.wikipedia.org/wiki/Teledyne_Technologies', 'http://www.teledyne.com/aboutus/aboutus.asp', 'http://www.teledynecareers.com/', 'http://www.teledyne.com/inquiries.asp', 'https://www.linkedin.com/company/teledyne-technologies-incorporated', 'http://www.teledyne.com/aboutus/companies.asp', 'https://finance.yahoo.com/quote/TDY/', 'http://www.teledyneems.com/', 'http://www.google.com/finance?q=NYSE:TDY']"
145873,"TDA RESEARCH, INC.",,12345 W 52ND AVE,,WHEAT RIDGE,CO,80033,1916.0,USA,7.0,,2L,CO,USA,"['http://tda.com/', 'https://www.linkedin.com/company/tda-research', 'https://cfpub.epa.gov/ncer_abstracts/index.cfm/fuseaction/display.institutionInfo/institution/3675', 'http://en.openei.org/wiki/TDA_Research,_Inc.', 'https://cfpub.epa.gov/ncer_abstracts/index.cfm/fuseaction/display.highlight/abstract/10482', 'http://www.nsti.org/directory/org.html?i=2283', 'https://www.netl.doe.gov/research/coal/carbon-capture/pre-combustion/regenerable-sorbent-tda', 'https://portal.nifa.usda.gov/web/crisprojectpages/1000153.html', 'https://www.researchgate.net/file.PostFileLoader.html?id=4f3e95fe7ef068f347000000&assetKey=AS%3A271742616965122%401441799896615', 'https://energy.gov/sites/prod/files/2014/06/f16/27-TDA%20AMO%20RD%20Project%20Peer%20Review%202014.pdf']"
145933,"MEASUREMENT SPECIALTIES, INC.",RTD COMPANY,1711 139TH LN NW,,ANDOVER,MN,55304,3926.0,USA,6.0,,2L,MN,USA,"['http://www.te.com/usa-en/products/brands/meas.html', 'https://www.linkedin.com/company/measurement-specialties-inc', 'https://www.digikey.com/en/supplier-centers/t/te-connectivity-measurement-specialties', 'http://www.mouser.com/measurement-specialties/', 'https://www.forbes.com/companies/measurement-specialties/', 'http://www.levelandpressure.com/', 'https://globenewswire.com/news-release/2014/08/26/661391/10096098/en/Measurement-Specialties-Shareholders-Approve-Merger-With-TE-Connectivity.html', 'http://www.levelandpressure.com/contact-us.aspx', 'http://investors.te.com/news-releases/press-release-details/2014/TE-Connectivity-Completes-Acquisition-of-Measurement-Specialties-Inc/default.aspx', 'http://www.annualreports.com/Company/measurement-specialties-inc']"
145934,"MEASUREMENT SPECIALTIES, INC.",,424 CROWN POINT CIR,,GRASS VALLEY,CA,95945,9089.0,USA,1.0,,2L,NJ,USA,"['http://www.te.com/usa-en/products/brands/meas.html', 'https://www.linkedin.com/company/measurement-specialties-inc', 'https://www.digikey.com/en/supplier-centers/t/te-connectivity-measurement-specialties', 'http://www.mouser.com/measurement-specialties/', 'https://www.forbes.com/companies/measurement-specialties/', 'http://www.levelandpressure.com/', 'https://globenewswire.com/news-release/2014/08/26/661391/10096098/en/Measurement-Specialties-Shareholders-Approve-Merger-With-TE-Connectivity.html', 'http://www.levelandpressure.com/contact-us.aspx', 'http://investors.te.com/news-releases/press-release-details/2014/TE-Connectivity-Completes-Acquisition-of-Measurement-Specialties-Inc/default.aspx', 'http://www.annualreports.com/Company/measurement-specialties-inc']"
145958,"NEXTEC APPLICATIONS, INC.",EPIC BY NEXTEC,11 TURNER DR,,GREENWICH,CT,6831.0,4415.0,USA,4.0,,2L,GA,USA,"['http://www.nextec.com/', 'https://www.linkedin.com/company/nextec-applications-inc-', 'http://www.nextec.com/contact.html', 'http://www.google.com/finance?cid=14300609', 'http://www.brookwoodcos.com/docs/hallwood-group-072007.pdf', 'https://www.law360.com/articles/601608/alston-bird-sued-for-allegedly-bungling-10m-ip-suit', 'https://www.ipethicslaw.com/alston-bird-prevails-in-10-million-patent-litigation-malpractice-suit/', 'http://www.brookwoodcos.com/docs/nextec-brookwood-12042013.pdf', 'https://seekingalpha.com/article/246656-hallwood-group-inc-undervalued-despite-litigation', 'https://www.reflexsourcing.com/']"
145959,"NEXTEC APPLICATIONS, INC.",,304 CONESTEE RD,,CONESTEE,SC,29636,0.0,USA,4.0,,2L,GA,USA,"['http://www.nextec.com/', 'https://www.linkedin.com/company/nextec-applications-inc-', 'http://www.nextec.com/contact.html', 'http://www.google.com/finance?cid=14300609', 'http://www.brookwoodcos.com/docs/hallwood-group-072007.pdf', 'https://www.law360.com/articles/601608/alston-bird-sued-for-allegedly-bungling-10m-ip-suit', 'https://www.ipethicslaw.com/alston-bird-prevails-in-10-million-patent-litigation-malpractice-suit/', 'http://www.brookwoodcos.com/docs/nextec-brookwood-12042013.pdf', 'https://seekingalpha.com/article/246656-hallwood-group-inc-undervalued-despite-litigation', 'https://www.reflexsourcing.com/']"
145967,CHAMPLAIN CABLE CORPORATION,,175 HERCULES DR,,COLCHESTER,VT,5446,5925.0,USA,0.0,,2L,DE,USA,"['https://www.champcable.com/', 'https://www.linkedin.com/company/champlain-cable-corporation', 'https://www.champcable.com/contact-us/', 'https://www.monster.com/jobs/c-champlain-cable-corporation-l-colchester,-vt.aspx', 'https://www.champcable.com/careers/', 'https://www.monster.com/jobs/c-champlain-cable-corporation.aspx', 'https://www.champcable.com/product/', 'https://www.nema.org/Manufacturers/Pages/Champlain-Cable-Corporation.aspx', 'http://www.vermontbiz.com/company/champlain-cable-corp', 'http://www.thomasnet.com/profile/10007766/champlain-cable-corporation.html']"
146028,"RICHTER PRECISION, INC.",,1021 COMMERCIAL AVE,,EAST PETERSBURG,PA,17520,1601.0,USA,16.0,,2L,PA,USA,"['http://www.richterprecision.com/', 'https://www.linkedin.com/company/richter-precision-inc', 'http://www.richterprecision.com/contact.html', 'https://www.facebook.com/Richter-Precision-Inc-733493560111509/', 'http://www.richterprecision.com/about.html', 'http://www.thomasnet.com/profile/00143178/richter-precision-inc.html', 'http://www.richterprecision.com/pvd-coatings.html', 'https://www.crunchbase.com/organization/richter-precision', 'https://www.yellowpages.com/clinton-township-mi/mip/richter-precision-inc-3082164', 'http://www.sciencedirect.com/science/article/pii/S187770581504446X']"
146601,"SIERRA LOBO, INC.",,102 PINNACLE DR,,FREMONT,OH,43420,7400.0,USA,4.0,,2L,OH,USA,"['http://www.sierralobo.com/', 'https://www.linkedin.com/company/sierra-lobo-inc', 'http://www.sierralobo.com/careers/employment-opportunities/', 'http://www.supremecourt.ohio.gov/rod/docs/pdf/0/2016/2016-Ohio-5027.pdf', 'http://www.sierralobo.com/about-us/', 'https://www.facebook.com/sierralobo/', 'http://www.sierralobo.com/office-locations/', 'https://www.sba.gov/sba-100/sierra-lobo-inc', 'https://twitter.com/sierralobo?lang=en', 'http://www.payscale.com/research/US/Employer=Sierra_Lobo_Inc/Salary']"
146622,CHEVRON U.S.A. INC.,CHEVRON,6001 BOLLINGER CANYON RD,,SAN RAMON,CA,94583,2324.0,USA,15.0,,2L,DE,USA,"['https://www.chevron.com/', 'https://supreme.justia.com/cases/federal/us/467/837/case.html', 'https://www.chevron.com/worldwide/united-states', 'https://en.wikipedia.org/wiki/Chevron_Corporation', 'https://www.law.cornell.edu/supremecourt/text/467/837', 'https://en.wikipedia.org/wiki/Chevron_U.S.A.,_Inc._v._Natural_Resources_Defense_Council,_Inc.', 'https://www.oyez.org/cases/2004/04-163', 'https://www.law.cornell.edu/supct/html/04-163.ZS.html', 'http://www.hoovers.com/company-information/cs/company-profile.chevron_usa_inc.da7d025f84cc2a7b.html', 'https://www.chevrontexacocards.com/']"
147043,"ABT, INC.",,259 MURDOCK RD,,TROUTMAN,NC,28166,9695.0,USA,9.0,,2L,NC,USA,"['https://www.abtdrains.com/', 'http://www.abt.com/help/why-shop-abt', 'https://www.abtdrains.com/products/precast-trench-drain/polydrain/', 'http://www.abt.com/', 'https://www.abtdrains.com/contact/', 'http://www.abt-mfg.com/', 'http://www.abtinc.com/', 'http://www.abtassociates.com/', 'http://www.abtinc.com/about.php', 'https://www.linkedin.com/company/abt-inc']"
147459,L-3 COMMUNICATIONS CORPORATION,L-3 COMMUNICATIONS CORPORATION ADVANCED LASER SYSTEMS TECHNOLOGY DIVISION,2500 N ORANGE BLOSSOM TRL,,ORLANDO,FL,32804,4807.0,USA,10.0,,2L,DE,USA,"['https://www.l3t.com/', 'https://en.wikipedia.org/wiki/L3_Technologies', 'https://www.l3t.com/careers', 'http://www2.l-3com.com/csw/', 'https://www.l3t.com/about-l-3', 'http://www2.l-3com.com/cs-east/', 'http://www2.l3t.com/csw', 'https://www.l-3avionics.com/', 'http://www2.l-3com.com/AVISYS/index.html', 'http://www.sds.l-3com.com/']"
147485,NLIGHT PHOTONICS CORPORATION,NLIGHT,5408 NE 88TH ST BLDG E,,VANCOUVER,WA,98665.0,990.0,USA,3.0,,2L,DE,USA,"['http://www.nlight.net/', 'https://www.rp-photonics.com/bg/profiles/nlight_photonics.html', 'http://www.nlight.net/contact/worldwide', 'https://www.linkedin.com/company/nlight', 'http://www.nlight.net/careers/', 'https://en.wikipedia.org/wiki/NLight', 'http://www.nlight.net/contact.php', 'https://www.crunchbase.com/organization/nlight', 'http://www.payscale.com/research/US/Employer=Nlight_Photonics_Corporation/Salary', 'https://www.youtube.com/watch?v=FhR9Bj5sDBg']"
147610,DREXEL UNIVERSITY,OFFICE OF STUDENT ACCOUNTS,3141 CHESTNUT ST,,PHILADELPHIA,PA,19104,2816.0,USA,2.0,,ZZ,PA,USA,"['http://drexel.edu/', 'https://en.wikipedia.org/wiki/Drexel_University', 'https://online.drexel.edu/', 'https://www.usnews.com/best-colleges/drexel-university-3256', 'https://www.facebook.com/drexeluniv/', 'http://www.drexeldragons.com/', 'http://www.lebow.drexel.edu/', 'https://www.niche.com/colleges/drexel-university/', 'http://sacramento.drexel.edu/', 'https://www.library.drexel.edu/']"
147750,SUNSHINE RAISIN CORPORATION,NATIONAL RAISIN COMPANY,626 S 5TH ST,,FOWLER,CA,93625.0,9745.0,USA,21.0,,2L,CA,USA,"['http://www.nationalraisin.com/', 'http://www.vault.com/company-profiles/food-beverage/national-raisin-company/company-overview', 'https://www.linkedin.com/company/national-raisin-company', 'https://en.wikipedia.org/wiki/Sunshine_Biscuits', 'https://www.linkedin.com/in/clintweiler', 'http://norcalrecord.com/stories/511118894-california-raisin-growers-association-inc-alleges-it-is-owed-more-than-500-000', 'http://www.lakecountrycandies.com/', 'http://www.thepacker.com/fruit-vegetable-news/Raisin-godfather-dies-at-80-239486121.html', 'https://en.wikipedia.org/wiki/Sun-Maid', 'http://www.sunmaid.com/']"
148259,"INTEGRATED BIOSYSTEMS, INC.",,10143 BROADSWORD DR,,BRISTOW,VA,20136,5611.0,USA,1.0,,2L,VA,USA,"['http://ibs001.businesscatalyst.com/', 'https://www.linkedin.com/company/integrated-biosystems-inc.', 'http://www.integratedbio.com/', 'https://www.sartorius.com/', 'https://en.wikipedia.org/wiki/The_Environmental_Institute', 'http://www.igbiosystems.com/', 'https://www.youtube.com/watch?v=Tctb-32DCYY', 'https://www.massbio.org/member/integral-biosystems-llc-43875', 'http://www.promega.com/aboutus/press-releases/2009/20090803_turner/', 'https://www.thermofisher.com/us/en/home/brands/applied-biosystems.html']"
148459,"SECOND SIGHT MEDICAL PRODUCTS, INC.",,12744 SAN FERNANDO RD STE 400,,SYLMAR,CA,91342,3859.0,USA,29.0,,2L,CA,USA,"['http://www.secondsight.com/', 'http://investors.secondsight.com/', 'https://finance.yahoo.com/q?s=eyes', 'http://investors.secondsight.com/releases.cfm?view=all', 'https://www.linkedin.com/company/second-sight-medical-products', 'https://www.facebook.com/SecondSightArgus/', 'http://www.marketwatch.com/investing/stock/eyes', 'http://www.google.com/finance?q=NASDAQ:EYES', 'https://www.fool.com/investing/general/2015/03/12/why-second-sight-medical-products-inc-is-tumbling.aspx', 'http://www.nasdaq.com/markets/ipos/company/second-sight-medical-products-inc-599854-76175']"
148543,"FIBERGUIDE INDUSTRIES, INC.",,1 BAY ST STE 1,,STIRLING,NJ,7980,1529.0,USA,7.0,,2L,DE,USA,"['http://www.fiberguide.com/', 'https://www.linkedin.com/company/fiberguide-industries', 'http://www.fiberguide.com/about-fiberguide/', 'http://www.halma.com/sectors/environmental-and-analysis/fiberguide-industries-inc', 'http://www.fiberguide.com/contact/', 'http://halmapr.com/news/fiberguide/', 'http://www.fiberguide.com/product/', 'https://www.fiberguide.com/wp-content/uploads/2012/01/Assemblies-rev-12-4-20091.pdf', 'http://www.thomasnet.com/profile/00583351/fiberguide-industries-inc.html', 'https://www.fiberguide.com/wp-content/uploads/2013/02/Fiberguide-Overview-013113.pdf']"
148670,"NEW HEALTH SCIENCES, INC.",,6903 ROCKLEDGE DR STE 230,,BETHESDA,MD,20817,1866.0,USA,8.0,,2L,DE,USA,"['http://newhealthsciences.com/', 'https://www.linkedin.com/company/new-health-sciences-inc.', 'http://newhealthsciences.com/nhsi-relaunches-manufacturing-facility-in-avon-ma/', 'https://www.massbio.org/member/new-health-sciences-inc-43638', 'http://newhealthsciences.com/contact/', 'https://www.crunchbase.com/organization/new-health-sciences', 'http://newhealthsciences.com/company/', 'http://www.prnewswire.com/news-releases/new-health-sciences-initiates-clinical-trial-for-the-hemanext-rbc-processing-system-300471090.html', 'http://medcitynews.com/2014/01/los-alamos-blood-banks/', 'http://www.prnewswire.com/news-releases/new-health-sciences-awarded-3-million-nih-grant-to-commercialize-hemanext-300258332.html']"
148688,"NEXTECH MATERIALS, LTD.",NEXCERIS,404 ENTERPRISE DR,,LEWIS CENTER,OH,43035,9423.0,USA,12.0,,2K,OH,USA,"['http://nexceris.com/news/nextech-materials/', 'https://www.linkedin.com/company/nextech-materials-ltd.', 'http://www.fuelcellmarkets.com/nextech_materials/products_and_services/3,1,722,17,27861.html?subsite=722&language=1', 'https://fuelcellmaterials.com/about-us/', 'http://www.sciencedirect.com/science/article/pii/S1464285912701608', 'https://www.netl.doe.gov/research/coal/project-information/proj?k=SC0008203', 'http://www.statler.wvu.edu/faculty-staff/faculty/edward-sabolsky', 'https://www.netl.doe.gov/File%20Library/Research/Coal/energy%20systems/fuel%20cells/proceedings/NexTech-poster.pdf', 'http://www.h2fc-fair.com/hm11/exhibitors/nextech.html', 'http://www.fuelcellcorridor.com/the-fuel-cell-corridor-map']"
148839,ELECTRO OPTICAL SCIENCES INC.,,8704 SIDE SADDLE RD,,SPRINGFIELD,VA,22152,2731.0,USA,11.0,,ZZ,VA,USA,"['http://www.biospace.com/company_profile.aspx?CompanyId=993820', 'http://www.psicorp.com/careers/open-positions/406841', 'https://www.electro-optical.com/', 'http://www.opticalsciences.com/', 'https://www.melafind.com/', 'https://www.amazon.com/Electro-Optical-Displays-Optical-Science-Engineering/dp/0824786955', 'https://en.wikipedia.org/wiki/David_L._Fried', 'https://www.linkedin.com/jobs/view/404838650', 'https://www.optics.arizona.edu/academics/degree-programs/master-science-optical-sciences', 'http://os.tnw.utwente.nl/']"
148965,"PROTON ENERGY SYSTEMS, INC.",PROTON ONSITE,10 TECHNOLOGY DR,,WALLINGFORD,CT,6492,1955.0,USA,3.0,,ZZ,CT,USA,"['http://www.protononsite.com/', 'https://www.linkedin.com/company/proton-energy-systems', 'https://energy.gov/sites/prod/files/2014/03/f11/sbir_proton.pdf', 'https://www.linkedin.com/company/proton-energy-systems-inc.', 'http://www.protonenergy.com/news-events/proton-onsite-awarded-13-megawatt-electrolyzers', 'http://www.courant.com/business/hc-proton-energy-sale-20170228-story.html', 'https://www.facebook.com/protononsite/', 'http://www.fuelcellmarkets.com/Proton_OnSite_Hydrogen_Electrolysers_Fuelling/news_and_information/3,1,427,1,27704.html', 'https://www.gasworld.com/nel-acquires-proton-onsite/2012338.article', 'http://www.protonenergy.com/news-events/nel-asa-acquires-proton-onsite-create-worlds-largest-electrolyser-company-and-launches']"
149395,"SENSOR ELECTRONIC TECHNOLOGY, INC.",,110 ATLAS CT,,COLUMBIA,SC,29209,2476.0,USA,6.0,,2L,NY,USA,"['http://www.se-ti.com/', 'http://www.s-et.com/products/', 'https://www.linkedin.com/company/sensor-electronic-technology-inc', 'http://www.s-et.com/about-us.html', 'https://www.facebook.com/SensorElectronicTechnologyInc/', 'http://www.s-et.com/careers.html', 'http://www.thomasnet.com/profile/30432551/sensor-electronic-technology-inc.html', 'https://www.aptechnologies.co.uk/suppliers/sensor-electronic-technology', 'http://www.mashburnconstruction.com/LiteratureRetrieve.aspx?ID=180299', 'http://www.manta.com/c/mr0bn0j/sensor-electronic-technology-inc']"
149566,"RELYPSA, INC.",,100 CARDINAL WAY,,REDWOOD CITY,CA,94063,4755.0,USA,14.0,,2L,DE,USA,"['http://www.relypsa.com/', 'https://www.bloomberg.com/research/stocks/private/snapshot.asp?privcapId=38652417', 'http://www.relypsa.com/join-us/careers/', 'https://www.linkedin.com/company/relypsa', 'http://www.relypsa.com/who-we-are/about-us/', 'http://www.google.com/finance?q=NASDAQ:RLYP', 'http://www.relypsa.com/contact/', 'https://www.fool.com/investing/general/2016/05/23/why-relypsa-inc-is-moving-higher-today.aspx', 'http://bciq.biocentury.com/companies/relypsa_inc', 'https://www.fool.com/investing/general/2016/05/27/shares-of-relypsa-inc-are-surging-yet-again-heres.aspx']"
149700,"ADHESIVES RESEARCH, INC.",,400 SEAKS RUN RD,,GLEN ROCK,PA,17327,9500.0,USA,4.0,,2L,PA,USA,"['http://www.adhesivesresearch.com/', 'https://www.linkedin.com/company/adhesives-research-inc-', 'http://www.adhesivesresearch.com/home/careers/', 'http://www.packagingdigest.com/adhesives/adhesives-research-inc', 'http://www.adhesivesresearch.com/contact/', 'http://www.fabrico.com/about-fabrico/strategic-partners/adhesives-research', 'http://web.aimcal.org/COATINGS/Adhesives-Research,-Inc-5425', 'https://www.epa.gov/hwcorrectiveactionsites/hazardous-waste-cleanup-adhesive-research-incorporated-glen-rock', 'https://www.rdmag.com/company-profiles/adhesives-research-inc', 'https://www.afera.com/find-a-member/leden/adhesives-research-ireland-ltd.html']"
149717,"PEARSON EDUCATION, INC.",PEARSON,1900 E LAKE AVE,,GLENVIEW,IL,60025,2055.0,USA,9.0,,2L,MA,USA,"['https://www.pearson.com/', 'http://www.pearsonschool.com/', 'https://en.wikipedia.org/wiki/Pearson_Education', 'https://www.pearson.com/us/about.html', 'https://www.pearsonmylabandmastering.com/', 'https://www.pearsonhighered.com/revel/students/mobile-app/index.html', 'http://www.hoovers.com/company-information/cs/company-profile.pearson_education_inc.1e0ad1990328cafd.html', 'http://www.pearsonclinical.com/', 'https://www.teachersuccess.net/', 'http://www.peachpit.com/learnbyvideo']"
149890,CORNELL UNIVERSITY,CORNELL COOPERATIVE EXTENSION,121 SECOND ST RM 1,,ORISKANY,NY,13424,3921.0,USA,22.0,,ZZ,NY,USA,"['https://www.cornell.edu/', 'https://en.wikipedia.org/wiki/Cornell_University', 'https://www.cornell.edu/about/', 'https://www.facebook.com/Cornell/', 'https://www.cornell.edu/admissions/', 'https://www.usnews.com/best-colleges/cornell-university-2711', 'https://admissions.cornell.edu/', 'https://www2.vet.cornell.edu/', 'https://www.engineering.cornell.edu/', 'https://www.cs.cornell.edu/']"
152378,"PHENOMENEX, INC.",,411 MADRID AVE,,TORRANCE,CA,90501.0,1430.0,USA,43.0,,2L,CA,USA,"['http://www.phenomenex.com/', 'https://www.phenomenex.com/Home/ContactUs', 'https://en.wikipedia.org/wiki/Phenomenex', 'https://www.phenomenex.com/Home/News?id=Phenomenex_Opens_New_Office_in_India', 'https://www.glassdoor.com/Reviews/Phenomenex-Reviews-E263937.htm', 'http://www.selectscience.net/suppliers/phenomenex-inc/?compID=7242', 'http://www.biospace.com/News/phenomenex-inc-to-be-acquired-by-danaher/435530', 'https://www.linkedin.com/company/phenomenex', 'https://phenomenex.blob.core.windows.net/documents/e62d67d8-eef5-42f0-b829-4e188661ab57.pdf', 'http://phx.phenomenex.com/lib/TN93100312_w.pdf']"
152453,"VENTANA MEDICAL SYSTEMS, INC.",,1910 E INNOVATION PARK DR,,TUCSON,AZ,85737,1962.0,USA,1.0,,2L,DE,USA,"['http://www.ventana.com/', 'https://www.ventana.com/careers', 'http://www.ventana.com/product', 'https://en.wikipedia.org/wiki/Ventana_Medical_Systems', 'http://www.ventana.com/about-us/', 'http://www.roche.com/careers/country/usa/service/us_locations/roche-ventana.htm', 'https://www.glassdoor.com/Overview/Working-at-Ventana-Medical-EI_IE5971.11,26.htm', 'https://www.linkedin.com/company/ventana-medical-systems', 'http://tucson.com/business/tucson/ventana-medical-lays-off-workers-in-oro-valley/article_5723b896-bbe7-11e6-84be-3b68193c4d42.html', 'https://www.crunchbase.com/organization/ventana-medical-systems']"
152463,MAGNETIC METALS CORPORATION,,1900 HAYES AVE,,CAMDEN,NJ,8105,3656.0,USA,1.0,,2L,NJ,USA,"['http://www.magneticmetals.com/', 'http://www.thomasnet.com/profile/00137493/magnetic-metals-corp.html', 'http://www.magneticmetals.com/contact', 'https://www.linkedin.com/company/magnetic-metals', 'http://www.magneticmetals.com/products', 'https://www.youtube.com/watch?v=VkS3EiYRo4E', 'https://www.linkedin.com/in/tom-rooney-24065555', 'http://us.kompass.com/c/magnetic-metals-corp/us237391/', 'http://www.thefreedictionary.com/Magnetic+Metals', 'http://www.keyence.com/products/sensor/proximity/et/index.jsp']"
152581,"TEKSCAN, INC.",,307 W 1ST ST,,BOSTON,MA,2127,1309.0,USA,8.0,,ZZ,MA,USA,"['https://www.tekscan.com/', 'https://www.linkedin.com/company/tekscan', 'https://www.tekscan.com/dental', 'https://www.facebook.com/Tekscan/', 'https://www.tekscan.com/contact-us', 'https://twitter.com/tekscan?lang=en', 'https://www.tekscan.com/careers', 'https://www.youtube.com/user/tekscaninc', 'http://www.thomasnet.com/profile/00980062/tekscan.html', 'http://directory.designnews.com/tekscan-inc-comp226635.html']"
152582,"ILLUMITEX, INC.",,6301 E STASSNEY LN BLDG 6-400,,AUSTIN,TX,78744,3091.0,USA,35.0,,2L,DE,USA,"['http://illumitex.com/', 'https://www.linkedin.com/company/illumitex', 'http://illumitex.com/careers', 'https://en.wikipedia.org/wiki/Illumitex', 'http://illumitex.com/about', 'https://www.crunchbase.com/organization/illumitex', 'http://illumitex.com/contact', 'https://www.facebook.com/Illumitex/', 'https://illumitex.com/wp-content/uploads/2016/07/Illumitex-Distance-to-Canopy-Recommendations.pdf', 'https://twitter.com/illumitex?lang=en']"
152646,"NCC NANO, LLC",NOVACENTRIX,400 PARKER DR STE 1110,,AUSTIN,TX,78728,1252.0,USA,17.0,,2L,TX,USA,"['https://www.novacentrix.com/', 'http://www.merconics.com/products/novacentrix', 'https://www.novacentrix.com/about_us', 'http://web.aimcal.org/CONSULTANTS/NovaCentrix-3366', 'https://www.novacentrix.com/Terms_of_Use', 'http://store.novacentrix.com/v/vspfiles/assets/images/HPS-108AE1%20High%20Performance%20Silver%20Ink.pdf', 'http://pubs.rsc.org/en/Content/ArticleHtml/2014/RA/c4ra00292j', 'http://www.google.com/patents/US9643208', 'http://www.nccrussia.com/en/', 'https://store.novacentrix.com/v/vspfiles/assets/images/pro-001%20solvent.pdf']"
152677,CADILLAC PRODUCTS PACKAGING COMPANY,DALLAS PLANT,271 CADILLAC PKWY,,DALLAS,GA,30157,8278.0,USA,14.0,,2L,DE,USA,"['http://www.cadprod.com/', 'https://www.linkedin.com/company/cadillac-products-packaging-company', 'http://www.cadprod.com/military-packaging/', 'http://www.cadprodauto.com/', 'http://www.cadprod.com/locations/', 'https://www.linkedin.com/company/cadillac-products-automotive-company', 'http://www.cadprod.com/contact-us/', 'https://www.facebook.com/pages/Cadillac-Products-Packaging-Company/210943958936193', 'http://www.ptonline.com/columns/processor-strategies---cadillac-products-packaging-move-to-nine-layers-means-better-bags-high-value-niches', 'http://www.nationjob.com/Cadillac-Products-Packaging-Company-Terre-Haute-IN-jobs']"
152678,CADILLAC PRODUCTS PACKAGING COMPANY,,5800 CROOKS RD,,TROY,MI,48098,2830.0,USA,11.0,,2L,MI,USA,"['http://www.cadprod.com/', 'https://www.linkedin.com/company/cadillac-products-packaging-company', 'http://www.cadprod.com/military-packaging/', 'http://www.cadprodauto.com/', 'http://www.cadprod.com/locations/', 'https://www.linkedin.com/company/cadillac-products-automotive-company', 'http://www.cadprod.com/contact-us/', 'https://www.facebook.com/pages/Cadillac-Products-Packaging-Company/210943958936193', 'http://www.ptonline.com/columns/processor-strategies---cadillac-products-packaging-move-to-nine-layers-means-better-bags-high-value-niches', 'http://www.nationjob.com/Cadillac-Products-Packaging-Company-Terre-Haute-IN-jobs']"
152824,"DELTA ELECTRONICS, INC.",DELTA MEDIA SYSTEMS,219 CLINTON BLVD,,CLINTON,MS,39056,5119.0,USA,2.0,,2L,MS,USA,"['http://www.deltaww.com/', 'http://www.deltaelectronics.com/', 'http://www.deltaww.com/Products/CategoryListT1.aspx?CID=06&hl=en-US', 'http://www.dedms.com/', 'http://www.delta.com.tw/', 'http://delta-electronics.com/', 'http://www.reuters.com/finance/stocks/companyProfile?symbol=2308.TW', 'http://www.delta-americas.com/', 'https://www.bloomberg.com/quote/2308:TT', 'https://www.linkedin.com/company/delta-electronics']"
153116,"SORAA, INC.",,6500 KAISER DR STE 110,,FREMONT,CA,94555.0,3662.0,USA,15.0,,2L,DE,USA,"['https://www.soraa.com/', 'https://www.facebook.com/SoraaInc/', 'https://www.soraa.com/about/careers', 'https://www.bloomberg.com/research/stocks/private/snapshot.asp?privcapId=40483554', 'https://www.soraa.com/about/contact', 'https://www.glassdoor.com/Reviews/Soraa-Reviews-E278897.htm', 'https://www.soraa.com/about', 'https://www.linkedin.com/company/soraa', 'https://soraalaser.com/', 'https://www.glassdoor.com/Jobs/Soraa-Jobs-E278897.htm']"
153139,KENNAMETAL INC.,ATI FIRTH STERLING,1297 COUNTY LINE RD,,MADISON,AL,35758,8014.0,USA,5.0,,2L,DE,USA,"['https://www.kennametal.com/', 'https://www.facebook.com/KennametalInc/', 'https://www.kennametal.com/en/about-us/careers.html', 'https://www.linkedin.com/company/kennametal', 'https://www.kennametal.com/en/products.html', 'http://www.google.com/finance?q=NYSE:KMT', 'https://www.kennametal.com/en/about-us.html', 'https://en.wikipedia.org/wiki/Kennametal', 'https://finance.yahoo.com/quote/KMT/', 'http://phx.corporate-ir.net/phoenix.zhtml?c=119933&p=irol-irhome']"
153220,"COLLEGE PARK INDUSTRIES, INC.",,27955 COLLEGE PARK DR,,WARREN,MI,48088,4877.0,USA,9.0,,2L,MI,USA,"['https://www.college-park.com/', 'https://en.wikipedia.org/wiki/College_Park_Industries', 'https://www.linkedin.com/company/college-park-industries', 'https://www.facebook.com/CollegeParkIndustries/', 'https://www.kununu.com/us/college-park-industries', 'http://www.payscale.com/research/US/Employer=College_Park_Industries/Salary', 'http://merger.com/transactions/mirus-advises-liberating-technologies-sale-college-park-industries/', 'https://www.yellowpages.com/warren-mi/mip/college-park-industries-474524922', 'https://www.youtube.com/watch?v=kmAn5l5lWZg', 'https://commons.wikimedia.org/wiki/File:College_Park_Industries,_Inc._Logo.png']"
153470,"KIDDE-FENWAL, INC.",KIDDE FIRE SYSTEM,400 MAIN ST,,ASHLAND,MA,01721,2150.0,USA,5.0,,2L,DE,USA,"['https://www.kidde-fenwal.com/', 'https://kidde-fenwal.com/Public/Find_Distributor/Kidde-Fire-Systems', 'https://www.linkedin.com/company/kidde-fenwal', 'https://kidde-fenwal.com/Public/Kidde', 'http://www.kidde.com/engineered-systems/en/us/about/history/', 'https://kidde-fenwal.com/Public/FireSystemsContactUs', 'https://www3.epa.gov/region1/npdes/nccwgp/noi/2015/KiddeFenwalIncMAG250946.pdf', 'http://news.thomasnet.com/companies/1263721', 'http://www.fenwalinc.com/Pages/ContactUs.aspx', 'https://www.controlfiresystems.com/media/catalog/pdf/Detect-A-Fire_Detection_and_Release_Devices.pdf']"
153472,MONOLITHIC 3D INC.,,3555 WOODFORD DR,,SAN JOSE,CA,95124,3156.0,USA,18.0,,2L,TX,USA,"['http://www.monolithic3d.com/', 'https://www.linkedin.com/company/monolithic-3d-inc-', 'http://www.monolithic3d.com/about-us.html', 'https://n3xt.stanford.edu/system/files/b_cronquist_-_monolithic_3d.pdf', 'http://www.monolithic3d.com/why-monolithic-3d.html', 'http://electroiq.com/blog/2013/10/scaling-makes-monolithic-3d-ic-practical/', 'http://ieeexplore.ieee.org/document/7333537/', 'http://www.eetimes.com/author.asp?doc_id=1327817', 'https://nccavs-usergroups.avs.org/announcements_tfug/', 'https://www.youtube.com/watch?v=cpgYnOycGMw']"
153568,"PRIMET PRECISION MATERIALS, INC.",,950 DANBY RD STE 90,,ITHACA,NY,14850.0,5714.0,USA,23.0,,2L,DE,USA,"['http://primetprecision.com/', 'https://www.linkedin.com/company/primet-precision-materials-inc-', 'http://primetprecision.com/about-primet/', 'https://www.ny-best.org/page/member-spotlight-primet-precision-materials', 'https://www.crunchbase.com/organization/primet-precision-materials', 'https://www.azonano.com/suppliers.aspx?SupplierID=1803', 'http://www.zanzinato.com/work/primet-precision-materials/', 'https://ovpr.research.cornell.edu/VPR/CWC191-06/economic_dev/', 'http://www.4-traders.com/MAGNIS-RESOURCES-LTD-18074405/news/Magnis-Resources-New-York-State-Government-Supports-Battery-Gigafactory-24462060/', 'http://inscx.com/members.html']"
153570,"BRUKER NANO, INC.",BRUKER NANO SURFACES DIVISION,3400 E BRITANNIA DR STE 150,,TUCSON,AZ,85706,5010.0,USA,3.0,,2L,AZ,USA,"['https://www.bruker.com/products/x-ray-diffraction-and-elemental-analysis/eds-wds-ebsd-sem-micro-xrf-and-sem-micro-ct/landing-pages/nano-analysis-instruments.html', 'https://www.linkedin.com/company/bruker-nano-inc-', 'https://www.bruker.com/products/x-ray-diffraction-and-elemental-analysis/eds-wds-ebsd-sem-micro-xrf-and-sem-micro-ct/about-bruker-nano-analytics.html', 'http://ir.bruker.com/investors/corporate-governance/officers-and-directors/default.aspx', 'https://www.bruker.com/about-us/offices/bruker-nano-surfaces.html', 'https://www.azonano.com/suppliers.aspx?SupplierID=2182', 'https://www.bruker.com/', 'http://www.brukerafmprobes.com/', 'https://www.linkedin.com/company/bruker-corporation', 'https://www.hysitron.com/']"
153632,"COSMOSID, INC.",,1600 E GUDE DR,,ROCKVILLE,MD,20850,1341.0,USA,8.0,,2L,DE,USA,"['http://www.cosmosid.com/', 'https://www.crunchbase.com/organization/cosmosid', 'https://www.linkedin.com/company/cosmosid', 'http://www.cosmosid.com/about-cosmosid/', 'https://www.linkedin.com/company/cosmosid-inc.', 'https://www.eurekalert.org/pub_releases/2016-01/ci-cr012716.php', 'https://www.qiagenbioinformatics.com/plugins/cosmosid/', 'https://www.bizjournals.com/washington/news/2016/01/27/infectious-disease-diagnostics-company-cosmosid.html', 'http://www.prnewswire.com/news-releases/cosmosid-announces-oncobiome-partnership-with-the-white-house-cancer-moonshot-initiative-300345759.html', 'https://app.cosmosid.com/']"
153668,"CELLULAR RESEARCH, INC.",,4040 CAMPBELL AVE STE 110,,MENLO PARK,CA,94025,1053.0,USA,18.0,,2L,DE,USA,"['https://www.bd.com/genomics/', 'http://www.prnewswire.com/news-releases/bd-to-acquire-cellular-research-to-develop-a-leading-genomics-platform-for-single-cell-analysis-300133097.html', 'https://sbir.nih.gov/statistics/success-stories/cellular_research', 'http://www.bd.com/en-us/offerings/capabilities/genomics', 'https://www.linkedin.com/company/cellular-research', 'http://bciq.biocentury.com/companies/cellular_research_inc', 'https://www.crunchbase.com/organization/cellular-research', 'https://www.genomeweb.com/microarrays-multiplexing/becton-dickinson-acquires-single-cell-genomics-startup-cellular-research', 'http://livecellresearch.com/', 'https://www.natureindex.com/institution-outputs/united-states-of-america-usa/cellular-research-inc/537192e6140ba0ed7f000000']"
154099,T3 SCIENTIFIC LLC,T3 SCIENTIFIC,1630 91ST AVE NE STE 101,,BLAINE,MN,55449,4526.0,USA,6.0,,2K,MN,USA,"['https://stpaul.score.org/content/t3-scientific-llc', 'http://www.t3sci.com/', 'https://www.linkedin.com/company/t3-scientific', 'https://cfpub.epa.gov/ncer_abstracts/index.cfm/fuseaction/display.institutionInfo/institution/5978', 'https://www.atlas-scientific.com/product_pages/components/tentacle-t3.html', 'http://www.polis-solutions.net/single-post/2016/09/20/Scientific-American-Article-Promotes-T3-Training', 'https://www.glassdoor.com/Reviews/T3-Reviews-E15006.htm', 'http://www.zimmerbiometdental.com/wps/wcm/connect/dental/9b6c8168-06ec-48fa-a63b-b3c3f074b7f2/ZB0188_JIRD+T3+Scientific+Compendium.pdf?MOD=AJPERES&CACHEID=ROOTWORKSPACE.Z18_1O041O02L8PAF0A9JPRUH520H79b6c8168-06ec-48fa-a63b-b3c3f074b7f2', 'http://www.t3biosci.com/about-us/', 'https://www.amazon.com/T3-Innovation-CB400-Prowler-telephone/dp/B00FBBKN0K']"
154104,"MAGNOLIA SOLAR, INC.",,54 CUMMINGS PARK STE 316,,WOBURN,MA,1801,2123.0,USA,5.0,,2L,DE,USA,"['https://www.magnoliasolar.com/', 'https://www.ecoarkusa.com/ecoark-inc-merges-with-magnolia-solar-corporation/', 'https://www.magnoliasolar.com/about/about-magnolia', 'https://www.linkedin.com/company/magnolia-solar', 'http://www.magnoliasolar.com/technology/magnolia-solar-cells', 'https://www.crunchbase.com/organization/magnolia-solar', 'http://www.magnoliasolar.com/lost-password/', 'http://solarindustrymag.com/magnolia-solar-and-ecoark-complete-merger', 'https://renewablesnow.com/news/to-the-point-magnolia-solar-gets-thin-film-pv-cells-patent-in-us-564401/', 'https://www.otcmarkets.com/ajax/showFinancialReportById.pdf?id=152450']"
154116,"LINDEN PHOTONICS, INC.",,ONE PARK DR UNIT 10,,WESTFORD,MA,1886.0,3524.0,USA,3.0,,2L,DE,USA,"['http://lindenphotonics.com/', 'https://www.linkedin.com/company/linden-photonics', 'http://lindenphotonics.com/our-products/', 'https://www.youtube.com/watch?v=KGmGqrPLNfQ', 'http://www.lindenphotonics.com/press_releases/Icefin%20Press%20Release.pdf', 'https://photonicsolutioncenter.com/linden-photonics-inc', 'https://www.photonics.com/Company.aspx?CompanyID=17547', 'https://www.oceanologyinternational.com/en/Contributors/1390066/Stephen-ORiorden', 'http://www.marinetechnologynews.com/news/mtr100-linden-photonics-521464', 'http://papers.sae.org/2012-01-2110/']"
154124,"GENERAL ENGINEERING & RESEARCH, L.L.C.",,10459 ROSELLE ST STE A,,SAN DIEGO,CA,92121,1527.0,USA,52.0,,2L,CA,USA,"['https://www.geandr.com/', 'https://www.linkedin.com/company/general-engineering-&-research-l.l.c.', 'https://www.geandr.com/pages/our-team', 'https://www.cmtc.com/made-in-california-profile/general-engineering-research', 'https://www.youtube.com/watch?v=UcV9YD5osbA', 'http://ise.illinois.edu/directory/profile/mstrauss', 'http://www.ecs.baylor.edu/engineering/', 'http://ise.illinois.edu/undergraduate/research-experience/index.html', 'https://www.glassdoor.com/Salaries/general-engineer-salary-SRCH_KO0,16.htm', 'https://www.mtech.edu/academics/mines/generalengineering/mechanical-engineering.htm']"
154141,"ONDAVIA, INC.",,26102 EDEN LANDING RD STE 1,,HAYWARD,CA,94545,3715.0,USA,15.0,,2L,DE,USA,"['https://www.ondavia.com/', 'https://www.linkedin.com/company/ondavia-inc.', 'https://www.ondavia.com/about', 'http://www.ondavia.com/cartridges', 'https://www.ondavia.com/instruments', 'http://www.ondavia.com/produced-water', 'https://twitter.com/ondaviainc?lang=en', 'http://www.ondavia.com/groundwater', 'https://angel.co/ondavia', 'http://www.ondavia.com/accessories']"
154148,"CHEMSULTANTS INTERNATIONAL, INC.",,9079 TYLER BLVD,,MENTOR,OH,44060,1868.0,USA,14.0,,2L,OH,USA,"['http://chemsultants.com/', 'https://www.linkedin.com/company/chemsultants-international-inc.', 'http://chemsultants.com/about-us', 'https://www.youtube.com/watch?v=gxI3ucSpa4g', 'http://chemsultants.com/about-us/team', 'http://cheminstruments.com/', 'http://directory.qmed.com/chemsultants-international-comp236659.html', 'http://www.adhesivesmag.com/directories/2169-buyers-guide/listing/5766-chemsultants-international', 'http://www.news-herald.com/general-news/20170707/lake-geauga-fast-track-50-marks-25th-anniversary-in-2017', 'http://www.labelandnarrowweb.com/buyersguide']"
154194,"NYLON CORPORATION OF AMERICA, INC.",N Y C O A,333 SUNDIAL AVE,,MANCHESTER,NH,03103,7216.0,USA,1.0,,2L,DE,USA,"['http://nycoa.net/', 'https://www.linkedin.com/company/nylon-corporation-of-america-inc-nycoa', 'http://nycoa.net/news.php', 'https://www.linkedin.com/in/robert-filteau-7bb3b16b', 'https://www.yellowpages.com/manchester-nh/mip/nylon-corp-of-america-6225451', 'http://www.bigelowllc.com/casestudies/nycoa/', 'http://wemblyenterprises.com/', 'http://www.metapoint.com/portfolio_companies.html', 'https://www.nitta.com/', 'http://www.sdplastics.com/polyfaq1.html']"
154257,"INPHENIX, INC.",,250 N MINES RD,,LIVERMORE,CA,94551.0,2238.0,USA,15.0,,2L,DE,USA,"['http://inphenix.com/', 'https://www.glassdoor.com/Reviews/InPhenix-Reviews-E259048.htm', 'https://www.linkedin.com/company/inphenix-inc.', 'http://www.inphenix.com/about.asp?id=21', 'https://www.glassdoor.com/Overview/Working-at-InPhenix-EI_IE259048.11,19.htm', 'http://spie.org/exhibitor/company/InPhenix%2C-Inc.-Livermore-CA/SPIE-BiOS-2017', 'https://www.rp-photonics.com/bg/profiles/inphenix.html', 'http://optics.org/buyers/company/B000012691', 'http://semiconductorcompanies.com/listing/inphenix-inc-livermore-ca/', 'http://www.hikari-trading.com/opt/inphenix/file/0006_soa_device_gain.pdf']"
